{
  "type": "FeatureCollection",
  "features": [
    {
      "type": "Feature",
      "properties": {
        "norad_id": 34299,
        "name": "COSMOS 2251 DEB",
        "group": "cosmos-2251-debris",
        "lat": -59.77054874314946,
        "lon": 166.99252408111252,
        "alt_km": 310.85416416360295,
        "timestamp": "2025-12-20T03:42:47.788144+00:00",
        "meta_object_name": "COSMOS 2251 DEB",
        "meta_object_id": "1993-036MV",
        "meta_epoch": "2025-12-19T08:34:36.336864",
        "meta_mean_motion": 15.89119635,
        "meta_eccentricity": 0.0012322,
        "meta_inclination": 73.9689,
        "meta_ra_of_asc_node": 319.2881,
        "meta_arg_of_pericenter": 82.2517,
        "meta_mean_anomaly": 278.0114,
        "meta_ephemeris_type": 0,
        "meta_classification_type": "U",
        "meta_norad_cat_id": 34299,
        "meta_element_set_no": 999,
        "meta_rev_at_epoch": 89115,
        "meta_bstar": 0.0060966,
        "meta_mean_motion_dot": 0.01720539,
        "meta_mean_motion_ddot": 0.0014797,
        "tle_line1": "1 34299U 93036MV  25353.35736501  .01720539  14797-2  60966-2 0  9992",
        "tle_line2": "2 34299  73.9689 319.2881 0012322  82.2517 278.0114 15.89119635891153"
      },
      "geometry": {
        "type": "Point",
        "coordinates": [
          166.99252408111252,
          -59.77054874314946
        ]
      }
    },
    {
      "type": "Feature",
      "properties": {
        "norad_id": 34301,
        "name": "COSMOS 2251 DEB",
        "group": "cosmos-2251-debris",
        "lat": -54.73986460866293,
        "lon": -4.101549284891405,
        "alt_km": 613.8597967525457,
        "timestamp": "2025-12-20T03:42:47.788154+00:00",
        "meta_object_name": "COSMOS 2251 DEB",
        "meta_object_id": "1993-036MX",
        "meta_epoch": "2025-12-19T10:34:46.902432",
        "meta_mean_motion": 14.84854054,
        "meta_eccentricity": 0.0010679,
        "meta_inclination": 74.0045,
        "meta_ra_of_asc_node": 153.3802,
        "meta_arg_of_pericenter": 214.9329,
        "meta_mean_anomaly": 168.54,
        "meta_ephemeris_type": 0,
        "meta_classification_type": "U",
        "meta_norad_cat_id": 34301,
        "meta_element_set_no": 999,
        "meta_rev_at_epoch": 88500,
        "meta_bstar": 0.0021571,
        "meta_mean_motion_dot": 0.0001837,
        "meta_mean_motion_ddot": 0,
        "tle_line1": "1 34301U 93036MX  25353.44082063  .00018370  00000+0  21571-2 0  9993",
        "tle_line2": "2 34301  74.0045 153.3802 0010679 214.9329 168.5400 14.84854054885006"
      },
      "geometry": {
        "type": "Point",
        "coordinates": [
          -4.101549284891405,
          -54.73986460866293
        ]
      }
    },
    {
      "type": "Feature",
      "properties": {
        "norad_id": 34302,
        "name": "COSMOS 2251 DEB",
        "group": "cosmos-2251-debris",
        "lat": -15.003198108119195,
        "lon": -65.62939819758422,
        "alt_km": 799.2425005219711,
        "timestamp": "2025-12-20T03:42:47.788165+00:00",
        "meta_object_name": "COSMOS 2251 DEB",
        "meta_object_id": "1993-036MY",
        "meta_epoch": "2025-12-19T15:11:32.629920",
        "meta_mean_motion": 14.39354802,
        "meta_eccentricity": 0.0079166,
        "meta_inclination": 74.178,
        "meta_ra_of_asc_node": 110.9663,
        "meta_arg_of_pericenter": 324.2695,
        "meta_mean_anomaly": 49.7496,
        "meta_ephemeris_type": 0,
        "meta_classification_type": "U",
        "meta_norad_cat_id": 34302,
        "meta_element_set_no": 999,
        "meta_rev_at_epoch": 87820,
        "meta_bstar": 0.00042209,
        "meta_mean_motion_dot": 1.335e-05,
        "meta_mean_motion_ddot": 0,
        "tle_line1": "1 34302U 93036MY  25353.63301655  .00001335  00000+0  42209-3 0  9991",
        "tle_line2": "2 34302  74.1780 110.9663 0079166 324.2695  49.7496 14.39354802878200"
      },
      "geometry": {
        "type": "Point",
        "coordinates": [
          -65.62939819758422,
          -15.003198108119195
        ]
      }
    },
    {
      "type": "Feature",
      "properties": {
        "norad_id": 34303,
        "name": "COSMOS 2251 DEB",
        "group": "cosmos-2251-debris",
        "lat": 59.01715014387615,
        "lon": -57.48114571023628,
        "alt_km": 611.1221575070285,
        "timestamp": "2025-12-20T03:42:47.788176+00:00",
        "meta_object_name": "COSMOS 2251 DEB",
        "meta_object_id": "1993-036MZ",
        "meta_epoch": "2025-12-19T04:53:32.563104",
        "meta_mean_motion": 14.54534064,
        "meta_eccentricity": 0.0135329,
        "meta_inclination": 74.006,
        "meta_ra_of_asc_node": 275.7871,
        "meta_arg_of_pericenter": 52.5074,
        "meta_mean_anomaly": 73.2659,
        "meta_ephemeris_type": 0,
        "meta_classification_type": "U",
        "meta_norad_cat_id": 34303,
        "meta_element_set_no": 999,
        "meta_rev_at_epoch": 88056,
        "meta_bstar": 0.0010697,
        "meta_mean_motion_dot": 5.128e-05,
        "meta_mean_motion_ddot": 0,
        "tle_line1": "1 34303U 93036MZ  25353.20384911  .00005128  00000+0  10697-2 0  9990",
        "tle_line2": "2 34303  74.0060 275.7871 0135329  52.5074  73.2659 14.54534064880560"
      },
      "geometry": {
        "type": "Point",
        "coordinates": [
          -57.48114571023628,
          59.01715014387615
        ]
      }
    },
    {
      "type": "Feature",
      "properties": {
        "norad_id": 34304,
        "name": "COSMOS 2251 DEB",
        "group": "cosmos-2251-debris",
        "lat": 73.98650686904331,
        "lon": -158.3508377822818,
        "alt_km": 840.8649044283102,
        "timestamp": "2025-12-20T03:42:47.788186+00:00",
        "meta_object_name": "COSMOS 2251 DEB",
        "meta_object_id": "1993-036NA",
        "meta_epoch": "2025-12-19T10:56:28.553856",
        "meta_mean_motion": 14.37919229,
        "meta_eccentricity": 0.0129018,
        "meta_inclination": 74.0136,
        "meta_ra_of_asc_node": 110.2061,
        "meta_arg_of_pericenter": 246.6357,
        "meta_mean_anomaly": 188.69,
        "meta_ephemeris_type": 0,
        "meta_classification_type": "U",
        "meta_norad_cat_id": 34304,
        "meta_element_set_no": 999,
        "meta_rev_at_epoch": 87393,
        "meta_bstar": 0.0010637,
        "meta_mean_motion_dot": 3.51e-05,
        "meta_mean_motion_ddot": 0,
        "tle_line1": "1 34304U 93036NA  25353.45588604  .00003510  00000+0  10637-2 0  9990",
        "tle_line2": "2 34304  74.0136 110.2061 0129018 246.6357 188.6900 14.37919229873931"
      },
      "geometry": {
        "type": "Point",
        "coordinates": [
          -158.3508377822818,
          73.98650686904331
        ]
      }
    },
    {
      "type": "Feature",
      "properties": {
        "norad_id": 34307,
        "name": "COSMOS 2251 DEB",
        "group": "cosmos-2251-debris",
        "lat": -49.34082851192774,
        "lon": 140.66047994431676,
        "alt_km": 1109.7702711780057,
        "timestamp": "2025-12-20T03:42:47.788196+00:00",
        "meta_object_name": "COSMOS 2251 DEB",
        "meta_object_id": "1993-036ND",
        "meta_epoch": "2025-12-19T05:40:21.172224",
        "meta_mean_motion": 13.54329892,
        "meta_eccentricity": 0.0391843,
        "meta_inclination": 74.0534,
        "meta_ra_of_asc_node": 302.69,
        "meta_arg_of_pericenter": 132.2151,
        "meta_mean_anomaly": 299.4871,
        "meta_ephemeris_type": 0,
        "meta_classification_type": "U",
        "meta_norad_cat_id": 34307,
        "meta_element_set_no": 999,
        "meta_rev_at_epoch": 82950,
        "meta_bstar": 0.00050628,
        "meta_mean_motion_dot": 5.44e-06,
        "meta_mean_motion_ddot": 0,
        "tle_line1": "1 34307U 93036ND  25353.23635616  .00000544  00000+0  50628-3 0  9994",
        "tle_line2": "2 34307  74.0534 302.6900 0391843 132.2151 299.4871 13.54329892829505"
      },
      "geometry": {
        "type": "Point",
        "coordinates": [
          140.66047994431676,
          -49.34082851192774
        ]
      }
    },
    {
      "type": "Feature",
      "properties": {
        "norad_id": 34313,
        "name": "COSMOS 2251 DEB",
        "group": "cosmos-2251-debris",
        "lat": 67.01855803229125,
        "lon": 67.21755740459307,
        "alt_km": 491.69307295036015,
        "timestamp": "2025-12-20T03:42:47.788206+00:00",
        "meta_object_name": "COSMOS 2251 DEB",
        "meta_object_id": "1993-036NK",
        "meta_epoch": "2025-12-19T05:08:07.172160",
        "meta_mean_motion": 15.20167674,
        "meta_eccentricity": 0.001176,
        "meta_inclination": 73.9716,
        "meta_ra_of_asc_node": 291.8749,
        "meta_arg_of_pericenter": 71.0703,
        "meta_mean_anomaly": 289.1768,
        "meta_ephemeris_type": 0,
        "meta_classification_type": "U",
        "meta_norad_cat_id": 34313,
        "meta_element_set_no": 999,
        "meta_rev_at_epoch": 89163,
        "meta_bstar": 0.0029328,
        "meta_mean_motion_dot": 0.0006414,
        "meta_mean_motion_ddot": 0,
        "tle_line1": "1 34313U 93036NK  25353.21397190  .00064140  00000+0  29328-2 0  9995",
        "tle_line2": "2 34313  73.9716 291.8749 0011760  71.0703 289.1768 15.20167674891639"
      },
      "geometry": {
        "type": "Point",
        "coordinates": [
          67.21755740459307,
          67.01855803229125
        ]
      }
    }
  ]
}